NORAD_CAT_ID,OBJECT_NAME,OBJECT_TYPE,EPOCH,MEAN_MOTION,ECCENTRICITY,INCLINATION,RA_OF_ASC_NODE,ARG_OF_PERICENTER,MEAN_ANOMALY,BSTAR,MEAN_MOTION_DOT,MEAN_MOTION_DDOT,TLE_LINE0,TLE_LINE1,TLE_LINE2,SEMIMAJOR_AXIS,PERIOD,APOGEE,PERIGEE,DECAYED
56453.0,STARLINK-5935,PAYLOAD,2024-04-06 04:16:42,14.98333143,0.0002755,69.9994,115.8611,264.5297,95.5548,-2.5292e-05,-3.95e-06,0.0,0 STARLINK-5935,1 56453U 23064F   24097.17827440 -.00000395  00000-0 -25292-4 0  9996,2 56453  69.9994 115.8611 0002755 264.5297  95.5548 14.98333143 50378,6950.183,96.107,573.963,570.133,0.0
56453.0,STARLINK-5935,PAYLOAD,2024-04-06 09:05:07,14.9832623,0.0003253,69.998,115.3549,274.3315,85.7472,-5.7453e-05,-7.78e-06,0.0,0 STARLINK-5935,1 56453U 23064F   24097.37855958 -.00000778  00000-0 -57453-4 0  9992,2 56453  69.9980 115.3549 0003253 274.3315  85.7472 14.98326230 50402,6950.205,96.107,574.33,569.809,0.0
56453.0,STARLINK-5935,PAYLOAD,2024-04-06 18:41:55,14.98326777,0.0003274,69.9982,114.3459,271.8251,88.2533,-9.1185e-05,-1.181e-05,0.0,0 STARLINK-5935,1 56453U 23064F   24097.77912006 -.00001181  00000-0 -91185-4 0  9993,2 56453  69.9982 114.3459 0003274 271.8251  88.2533 14.98326777 50106,6950.203,96.107,574.343,569.792,0.0
56453.0,STARLINK-5935,PAYLOAD,2024-04-07 09:07:08,14.9833198,0.0003235,69.9982,112.8305,273.096,86.9829,-0.00019901,-2.467e-05,0.0,0 STARLINK-5935,1 56453U 23064F   24098.37995852 -.00002467  00000-0 -19901-3 0  9993,2 56453  69.9982 112.8305 0003235 273.0960  86.9829 14.98331980 50551,6950.187,96.107,574.3,569.803,0.0
56453.0,STARLINK-5935,PAYLOAD,2024-04-07 18:43:57,14.98306518,0.0003144,69.9983,111.8202,257.5668,102.5139,0.00024674,2.85e-05,0.0,0 STARLINK-5935,1 56453U 23064F   24098.78052414  .00002850  00000-0  24674-3 0  9993,2 56453  69.9983 111.8202 0003144 257.5668 102.5139 14.98306518 50613,6950.266,96.109,574.316,569.945,0.0
56453.0,STARLINK-5935,PAYLOAD,2024-04-08 04:20:45,14.98320911,0.0003233,69.9981,110.8098,273.282,86.797,4.4771e-05,4.41e-06,0.0,0 STARLINK-5935,1 56453U 23064F   24099.18108031  .00000441  00000-0  44771-4 0  9990,2 56453  69.9981 110.8098 0003233 273.2820  86.7970 14.98320911 50672,6950.221,96.108,574.333,569.839,0.0
56453.0,STARLINK-5935,PAYLOAD,2024-04-08 10:45:17,14.98321537,0.0003235,69.9982,110.1366,273.6468,86.4321,4.6996e-05,4.68e-06,0.0,0 STARLINK-5935,1 56453U 23064F   24099.44812144  .00000468  00000-0  46996-4 0  9996,2 56453  69.9982 110.1366 0003235 273.6468  86.4321 14.98321537 50355,6950.219,96.108,574.332,569.836,0.0
56453.0,STARLINK-5935,PAYLOAD,2024-04-08 23:34:22,14.98324663,0.0003246,69.9982,108.79,273.6322,86.4465,6.724e-05,7.09e-06,0.0,0 STARLINK-5935,1 56453U 23064F   24099.98220121  .00000709  00000-0  67240-4 0  9996,2 56453  69.9982 108.7900 0003246 273.6322  86.4465 14.98324663 50434,6950.209,96.107,574.33,569.818,0.0
56453.0,STARLINK-5935,PAYLOAD,2024-04-09 04:22:46,14.98324692,0.0003241,69.9982,108.285,273.6147,86.4642,6.3173e-05,6.61e-06,0.0,0 STARLINK-5935,1 56453U 23064F   24100.18248200  .00000661  00000-0  63173-4 0  9997,2 56453  69.9982 108.2850 0003241 273.6147  86.4642 14.98324692 50825,6950.209,96.107,574.327,569.822,0.0
56453.0,STARLINK-5935,PAYLOAD,2024-04-09 09:11:10,14.9832563,0.0003232,69.9982,107.7799,273.8592,86.2197,7.0802e-05,7.52e-06,0.0,0 STARLINK-5935,1 56453U 23064F   24100.38276184  .00000752  00000-0  70802-4 0  9999,2 56453  69.9982 107.7799 0003232 273.8592  86.2197 14.98325630 50496,6950.206,96.107,574.318,569.825,0.0
56453.0,STARLINK-5935,PAYLOAD,2024-04-09 17:11:51,14.9832233,0.000316,69.9983,106.9382,270.8909,89.1887,0.00012035,1.343e-05,0.0,0 STARLINK-5935,1 56453U 23064F   24100.71656368  .00001343  00000-0  12035-3 0  9992,2 56453  69.9983 106.9382 0003160 270.8909  89.1887 14.98322330 50543,6950.217,96.107,574.278,569.885,0.0
56453.0,STARLINK-5935,PAYLOAD,2024-04-10 04:24:47,14.98327242,0.0003223,69.9982,105.7599,273.7984,86.2806,3.6892e-05,3.47e-06,0.0,0 STARLINK-5935,1 56453U 23064F   24101.18388332  .00000347  00000-0  36892-4 0  9998,2 56453  69.9982 105.7599 0003223 273.7984  86.2806 14.98327242 50977,6950.201,96.107,574.306,569.826,0.0
56453.0,STARLINK-5935,PAYLOAD,2024-04-10 10:49:19,14.98326406,0.0002983,69.9988,105.0872,270.4486,89.6331,1.828e-05,1.25e-06,0.0,0 STARLINK-5935,1 56453U 23064F   24101.45092503  .00000125  00000-0  18280-4 0  9995,2 56453  69.9988 105.0872 0002983 270.4486  89.6331 14.98326406 50659,6950.204,96.107,574.142,569.996,0.0
56453.0,STARLINK-5935,PAYLOAD,2024-04-10 17:13:52,14.98321671,0.0003189,69.9981,104.413,272.4502,87.6292,0.00014409,1.626e-05,0.0,0 STARLINK-5935,1 56453U 23064F   24101.71796534  .00001626  00000-0  14409-3 0  9994,2 56453  69.9981 104.4130 0003189 272.4502  87.6292 14.98321671 50699,6950.219,96.108,574.3,569.867,0.0
56453.0,STARLINK-5935,PAYLOAD,2024-04-11 06:02:56,14.98327227,0.0003191,69.9985,103.0667,274.7571,85.3223,2.0919e-05,1.57e-06,0.0,0 STARLINK-5935,1 56453U 23064F   24102.25204440  .00000157  00000-0  20919-4 0  9996,2 56453  69.9985 103.0667 0003191 274.7571  85.3223 14.98327227 51139,6950.201,96.107,574.284,569.849,0.0
56453.0,STARLINK-5935,PAYLOAD,2024-04-11 10:51:20,14.98327709,0.000333,69.998,102.5615,276.3774,83.7005,3.7432e-05,3.54e-06,0.0,0 STARLINK-5935,1 56453U 23064F   24102.45232373  .00000354  00000-0  37432-4 0  9991,2 56453  69.9980 102.5615 0003330 276.3774  83.7005 14.98327709 50807,6950.2,96.107,574.379,569.751,0.0
56453.0,STARLINK-5935,PAYLOAD,2024-04-12 04:28:45,14.98373766,0.0002845,69.9982,100.7095,264.9901,95.0934,0.00046726,5.493e-05,0.0,0 STARLINK-5935,1 56453U 23064F   24103.18663885  .00005493  00000-0  46726-3 0  9992,2 56453  69.9982 100.7095 0002845 264.9901  95.0934 14.98373766 51279,6950.058,96.104,573.9,569.945,0.0
56453.0,STARLINK-5935,PAYLOAD,2024-04-12 09:17:13,14.9832642,0.0002662,69.999,100.2049,278.3585,81.7272,-2.9122e-05,-4.4e-06,0.0,0 STARLINK-5935,1 56453U 23064F   24103.38695943 -.00000440  00000-0 -29122-4 0  9995,2 56453  69.9990 100.2049 0002662 278.3585  81.7272 14.98326420 51302,6950.204,96.107,573.919,570.219,0.0
56453.0,STARLINK-5935,PAYLOAD,2024-04-13 09:19:13,14.98327892,0.000301,69.9986,97.68,268.0468,92.0346,-2.6013e-05,-4.03e-06,0.0,0 STARLINK-5935,1 56453U 23064F   24104.38835640 -.00000403  00000-0 -26013-4 0  9991,2 56453  69.9986  97.6800 0003010 268.0468  92.0346 14.98327892 51452,6950.199,96.107,574.156,569.972,0.0
56453.0,STARLINK-5935,PAYLOAD,2024-04-14 09:21:15,14.98339747,0.0002746,69.9987,95.1557,262.173,97.9118,-0.00037808,-4.602e-05,0.0,0 STARLINK-5935,1 56453U 23064F   24105.38975740 -.00004602  00000-0 -37808-3 0  9996,2 56453  69.9987  95.1557 0002746 262.1730  97.9118 14.98339747 51607,6950.163,96.106,573.936,570.119,0.0
56453.0,STARLINK-5935,PAYLOAD,2024-04-15 04:34:52,14.98323677,0.0003089,69.9988,93.1357,267.8431,92.2375,1.5976e-05,9.8e-07,0.0,0 STARLINK-5935,1 56453U 23064F   24106.19087994  .00000098  00000-0  15976-4 0  9997,2 56453  69.9988  93.1357 0003089 267.8431  92.2375 14.98323677 51726,6950.212,96.107,574.224,569.931,0.0
56453.0,STARLINK-5935,PAYLOAD,2024-04-15 09:23:16,14.98325312,0.0003056,69.9988,92.6308,266.6209,93.46,3.5182e-05,3.27e-06,0.0,0 STARLINK-5935,1 56453U 23064F   24106.39115910  .00000327  00000-0  35182-4 0  9995,2 56453  69.9988  92.6308 0003056 266.6209  93.4600 14.98325312 51395,6950.207,96.107,574.196,569.948,0.0
56453.0,STARLINK-5935,PAYLOAD,2024-04-15 22:12:20,14.9832514,0.0003115,69.9987,91.284,265.8597,94.2206,8.4455e-05,9.15e-06,0.0,0 STARLINK-5935,1 56453U 23064F   24106.92523932  .00000915  00000-0  84455-4 0  9991,2 56453  69.9987  91.2840 0003115 265.8597  94.2206 14.98325140 51476,6950.208,96.107,574.238,569.908,0.0
56453.0,STARLINK-5935,PAYLOAD,2024-04-16 04:36:52,14.98326275,0.0003129,69.9986,90.6101,267.4774,92.6027,9.2898e-05,1.015e-05,0.0,0 STARLINK-5935,1 56453U 23064F   24107.19227957  .00001015  00000-0  92898-4 0  9991,2 56453  69.9986  90.6101 0003129 267.4774  92.6027 14.98326275 51875,6950.204,96.107,574.244,569.895,0.0
56453.0,STARLINK-5935,PAYLOAD,2024-04-16 09:25:16,14.98330664,0.000309,69.9987,90.1052,267.3153,92.7652,0.00013638,1.535e-05,0.0,0 STARLINK-5935,1 56453U 23064F   24107.39255575  .00001535  00000-0  13638-3 0  9991,2 56453  69.9987  90.1052 0003090 267.3153  92.7652 14.98330664 51549,6950.191,96.107,574.203,569.908,0.0
56453.0,STARLINK-5935,PAYLOAD,2024-04-16 15:49:46,14.98359218,0.0003054,69.9995,89.4319,267.3788,92.7021,0.00041718,4.892e-05,0.0,0 STARLINK-5935,1 56453U 23064F   24107.65956709  .00004892  00000-0  41718-3 0  9996,2 56453  69.9995  89.4319 0003054 267.3788  92.7021 14.98359218 51949,6950.103,96.105,574.09,569.845,0.0
56453.0,STARLINK-5935,PAYLOAD,2024-04-17 04:38:53,14.98323916,0.0002952,69.9986,88.0851,264.8014,95.2808,-7.613e-05,-1.001e-05,0.0,0 STARLINK-5935,1 56453U 23064F   24108.19367520 -.00001001  00000-0 -76130-4 0  9991,2 56453  69.9986  88.0851 0002952 264.8014  95.2808 14.98323916 52022,6950.212,96.107,574.128,570.025,0.0
56453.0,STARLINK-5935,PAYLOAD,2024-04-17 09:27:17,14.98323192,0.0003013,69.9987,87.5802,267.1077,92.9737,-8.0352e-05,-1.051e-05,0.0,0 STARLINK-5935,1 56453U 23064F   24108.39395623 -.00001051  00000-0 -80352-4 0  9994,2 56453  69.9987  87.5802 0003013 267.1077  92.9737 14.98323192 51690,6950.214,96.107,574.173,569.985,0.0
56453.0,STARLINK-5935,PAYLOAD,2024-04-18 04:40:55,14.98314739,0.0002579,69.9999,85.5613,258.1839,101.903,-0.00019292,-2.393e-05,0.0,0 STARLINK-5935,1 56453U 23064F   24109.19508970 -.00002393  00000-0 -19292-3 0  9998,2 56453  69.9999  85.5613 0002579 258.1839 101.9030 14.98314739 52171,6950.24,96.108,573.898,570.313,0.0
56453.0,STARLINK-5935,PAYLOAD,2024-04-18 07:53:12,14.98313382,0.0002759,69.9994,85.2236,265.5817,94.5026,-0.00021456,-2.651e-05,0.0,0 STARLINK-5935,1 56453U 23064F   24109.32861245 -.00002651  00000-0 -21456-3 0  9992,2 56453  69.9994  85.2236 0002759 265.5817  94.5026 14.98313382 51839,6950.244,96.108,574.027,570.192,0.0
